{"type": "FeatureCollection", "features": [ {"type": "Feature", "properties": {"norad_id": 66603, "name": "STARLINK-36048", "group": "last-30-days", "lat": -32.74754724369245, "lon": 80.28411150128456, "alt_km": 390.6889918950892, "timestamp": "2025-12-08T15:42:48.537368+00:00", "meta": {"OBJECT_NAME": "STARLINK-36048", "OBJECT_ID": "2025-270R", "EPOCH": "2025-12-08T06:00:02.999808", "MEAN_MOTION": 15.61399008, "ECCENTRICITY": 0.00014409, "INCLINATION": 42.9989, "RA_OF_ASC_NODE": 219.039, "ARG_OF_PERICENTER": 276.0036, "MEAN_ANOMALY": 200.2305, "EPHEMERIS_TYPE": 0, "CLASSIFICATION_TYPE": "U", "NORAD_CAT_ID": 66603, "ELEMENT_SET_NO": 999, "REV_AT_EPOCH": 358, "BSTAR": -0.02597989, "MEAN_MOTION_DOT": -0.02000458, "MEAN_MOTION_DDOT": 0}, "tle": {"line1": "1 66603U 25270R   25342.25003472 -.02000458  00000+0 -25980-1 0  9991", "line2": "2 66603  42.9989 219.0390 0001440 276.0036 200.2305 15.61399008  3581"}}, "geometry": {"type": "Point", "coordinates": [80.28411150128456, -32.74754724369245]}}, {"type": "Feature", "properties": {"norad_id": 66604, "name": "STARLINK-35977", "group": "last-30-days", "lat": -33.67694911124677, "lon": 82.28205779177328, "alt_km": 390.6876275104478, "timestamp": "2025-12-08T15:42:48.537408+00:00", "meta": {"OBJECT_NAME": "STARLINK-35977", "OBJECT_ID": "2025-270S", "EPOCH": "2025-12-08T06:00:02.999808", "MEAN_MOTION": 15.61400207, "ECCENTRICITY": 0.00013441, "INCLINATION": 42.999, "RA_OF_ASC_NODE": 219.034, "ARG_OF_PERICENTER": 271.698, "MEAN_ANOMALY": 206.4503, "EPHEMERIS_TYPE": 0, "CLASSIFICATION_TYPE": "U", "NORAD_CAT_ID": 66604, "ELEMENT_SET_NO": 999, "REV_AT_EPOCH": 367, "BSTAR": -0.025980442, "MEAN_MOTION_DOT": -0.02000505, "MEAN_MOTION_DDOT": 0}, "tle": {"line1": "1 66604U 25270S   25342.25003472 -.02000505  00000+0 -25980-1 0  9995", "line2": "2 66604  42.9990 219.0340 0001344 271.6980 206.4503 15.61400207  3673"}}, "geometry": {"type": "Point", "coordinates": [82.28205779177328, -33.67694911124677]}}, {"type": "Feature", "properties": {"norad_id": 66605, "name": "STARLINK-36052", "group": "last-30-days", "lat": -34.57280719436328, "lon": 84.32273693009324, "alt_km": 390.73708479523157, "timestamp": "2025-12-08T15:42:48.537423+00:00", "meta": {"OBJECT_NAME": "STARLINK-36052", "OBJECT_ID": "2025-270T", "EPOCH": "2025-12-08T06:00:02.999808", "MEAN_MOTION": 15.61399643, "ECCENTRICITY": 0.00014015, "INCLINATION": 42.999, "RA_OF_ASC_NODE": 219.0298, "ARG_OF_PERICENTER": 274.8372, "MEAN_ANOMALY": 205.2318, "EPHEMERIS_TYPE": 0, "CLASSIFICATION_TYPE": "U", "NORAD_CAT_ID": 66605, "ELEMENT_SET_NO": 999, "REV_AT_EPOCH": 367, "BSTAR": -0.026006926, "MEAN_MOTION_DOT": -0.02002296, "MEAN_MOTION_DDOT": 0}, "tle": {"line1": "1 66605U 25270T   25342.25003472 -.02002296  00000+0 -26007-1 0  9996", "line2": "2 66605  42.9990 219.0298 0001401 274.8372 205.2318 15.61399643  3672"}}, "geometry": {"type": "Point", "coordinates": [84.32273693009324, -34.57280719436328]}}, {"type": "Feature", "properties": {"norad_id": 66606, "name": "STARLINK-36063", "group": "last-30-days", "lat": -36.25830335845791, "lon": 88.5343416736909, "alt_km": 390.76064510632295, "timestamp": "2025-12-08T15:42:48.537440+00:00", "meta": {"OBJECT_NAME": "STARLINK-36063", "OBJECT_ID": "2025-270U", "EPOCH": "2025-12-08T06:00:02.999808", "MEAN_MOTION": 15.61398698, "ECCENTRICITY": 0.00013132, "INCLINATION": 42.999, "RA_OF_ASC_NODE": 219.0197, "ARG_OF_PERICENTER": 270.7757, "MEAN_ANOMALY": 213.1244, "EPHEMERIS_TYPE": 0, "CLASSIFICATION_TYPE": "U", "NORAD_CAT_ID": 66606, "ELEMENT_SET_NO": 999, "REV_AT_EPOCH": 367, "BSTAR": -0.025948071, "MEAN_MOTION_DOT": -0.01998195, "MEAN_MOTION_DDOT": 0}, "tle": {"line1": "1 66606U 25270U   25342.25003472 -.01998195  00000+0 -25948-1 0  9991", "line2": "2 66606  42.9990 219.0197 0001313 270.7757 213.1244 15.61398698  3670"}}, "geometry": {"type": "Point", "coordinates": [88.5343416736909, -36.25830335845791]}}, {"type": "Feature", "properties": {"norad_id": 66607, "name": "STARLINK-35993", "group": "last-30-days", "lat": -35.43411147193867, "lon": 86.40760631007215, "alt_km": 390.7669250588833, "timestamp": "2025-12-08T15:42:48.537457+00:00", "meta": {"OBJECT_NAME": "STARLINK-35993", "OBJECT_ID": "2025-270V", "EPOCH": "2025-12-08T06:00:02.999808", "MEAN_MOTION": 15.61396553, "ECCENTRICITY": 0.00013796, "INCLINATION": 42.9989, "RA_OF_ASC_NODE": 219.0252, "ARG_OF_PERICENTER": 275.2407, "MEAN_ANOMALY": 206.7461, "EPHEMERIS_TYPE": 0, "CLASSIFICATION_TYPE": "U", "NORAD_CAT_ID": 66607, "ELEMENT_SET_NO": 999, "REV_AT_EPOCH": 358, "BSTAR": -0.025917435, "MEAN_MOTION_DOT": -0.01996029, "MEAN_MOTION_DDOT": 0}, "tle": {"line1": "1 66607U 25270V   25342.25003472 -.01996029  00000+0 -25917-1 0  9992", "line2": "2 66607  42.9989 219.0252 0001379 275.2407 206.7461 15.61396553  3582"}}, "geometry": {"type": "Point", "coordinates": [86.40760631007215, -35.43411147193867]}}, {"type": "Feature", "properties": {"norad_id": 66608, "name": "STARLINK-36036", "group": "last-30-days", "lat": -37.04367381339873, "lon": 90.70610110893602, "alt_km": 390.8131711511114, "timestamp": "2025-12-08T15:42:48.537467+00:00", "meta": {"OBJECT_NAME": "STARLINK-36036", "OBJECT_ID": "2025-270W", "EPOCH": "2025-12-08T06:00:02.999808", "MEAN_MOTION": 15.61397642, "ECCENTRICITY": 0.00013665, "INCLINATION": 42.999, "RA_OF_ASC_NODE": 219.0151, "ARG_OF_PERICENTER": 275.2797, "MEAN_ANOMALY": 210.5411, "EPHEMERIS_TYPE": 0, "CLASSIFICATION_TYPE": "U", "NORAD_CAT_ID": 66608, "ELEMENT_SET_NO": 999, "REV_AT_EPOCH": 352, "BSTAR": -0.025961974, "MEAN_MOTION_DOT": -0.01999099, "MEAN_MOTION_DDOT": 0}, "tle": {"line1": "1 66608U 25270W   25342.25003472 -.01999099  00000+0 -25962-1 0  9993", "line2": "2 66608  42.9990 219.0151 0001366 275.2797 210.5411 15.61397642  3523"}}, "geometry": {"type": "Point", "coordinates": [90.70610110893602, -37.04367381339873]}}, {"type": "Feature", "properties": {"norad_id": 66609, "name": "STARLINK-36034", "group": "last-30-days", "lat": -37.789300852542716, "lon": 92.92520898261479, "alt_km": 390.84367257554004, "timestamp": "2025-12-08T15:42:48.537477+00:00", "meta": {"OBJECT_NAME": "STARLINK-36034", "OBJECT_ID": "2025-270X", "EPOCH": "2025-12-08T06:00:02.999808", "MEAN_MOTION": 15.61397123, "ECCENTRICITY": 0.00012992, "INCLINATION": 42.999, "RA_OF_ASC_NODE": 219.011, "ARG_OF_PERICENTER": 273.5331, "MEAN_ANOMALY": 214.2059, "EPHEMERIS_TYPE": 0, "CLASSIFICATION_TYPE": "U", "NORAD_CAT_ID": 66609, "ELEMENT_SET_NO": 999, "REV_AT_EPOCH": 352, "BSTAR": -0.025956655, "MEAN_MOTION_DOT": -0.01998655, "MEAN_MOTION_DDOT": 0}, "tle": {"line1": "1 66609U 25270X   25342.25003472 -.01998655  00000+0 -25957-1 0  9995", "line2": "2 66609  42.9990 219.0110 0001299 273.5331 214.2059 15.61397123  3522"}}, "geometry": {"type": "Point", "coordinates": [92.92520898261479, -37.789300852542716]}}, {"type": "Feature", "properties": {"norad_id": 66610, "name": "STARLINK-35680", "group": "last-30-days", "lat": -38.491224257992826, "lon": 95.18385954810967, "alt_km": 390.85291200513075, "timestamp": "2025-12-08T15:42:48.537491+00:00", "meta": {"OBJECT_NAME": "STARLINK-35680", "OBJECT_ID": "2025-270Y", "EPOCH": "2025-12-08T06:00:02.999808", "MEAN_MOTION": 15.61397348, "ECCENTRICITY": 0.00013507, "INCLINATION": 42.9989, "RA_OF_ASC_NODE": 219.0058, "ARG_OF_PERICENTER": 275.9777, "MEAN_ANOMALY": 213.6771, "EPHEMERIS_TYPE": 0, "CLASSIFICATION_TYPE": "U", "NORAD_CAT_ID": 66610, "ELEMENT_SET_NO": 999, "REV_AT_EPOCH": 378, "BSTAR": -0.025935286, "MEAN_MOTION_DOT": -0.01997267, "MEAN_MOTION_DDOT": 0}, "tle": {"line1": "1 66610U 25270Y   25342.25003472 -.01997267  00000+0 -25935-1 0  9991", "line2": "2 66610  42.9989 219.0058 0001350 275.9777 213.6771 15.61397348  3782"}}, "geometry": {"type": "Point", "coordinates": [95.18385954810967, -38.491224257992826]}}, {"type": "Feature", "properties": {"norad_id": 66611, "name": "STARLINK-35583", "group": "last-30-days", "lat": -39.14921465431994, "lon": 97.48733758069662, "alt_km": 390.8223460249519, "timestamp": "2025-12-08T15:42:48.537501+00:00", "meta": {"OBJECT_NAME": "STARLINK-35583", "OBJECT_ID": "2025-270Z", "EPOCH": "2025-12-08T06:00:02.999808", "MEAN_MOTION": 15.61397497, "ECCENTRICITY": 0.0001377, "INCLINATION": 42.9989, "RA_OF_ASC_NODE": 219.0009, "ARG_OF_PERICENTER": 273.7885, "MEAN_ANOMALY": 217.783, "EPHEMERIS_TYPE": 0, "CLASSIFICATION_TYPE": "U", "NORAD_CAT_ID": 66611, "ELEMENT_SET_NO": 999, "REV_AT_EPOCH": 378, "BSTAR": -0.025940856, "MEAN_MOTION_DOT": -0.01997672, "MEAN_MOTION_DDOT": 0}, "tle": {"line1": "1 66611U 25270Z   25342.25003472 -.01997672  00000+0 -25941-1 0  9999", "line2": "2 66611  42.9989 219.0009 0001377 273.7885 217.7830 15.61397497  3780"}}, "geometry": {"type": "Point", "coordinates": [97.48733758069662, -39.14921465431994]}}, {"type": "Feature", "properties": {"norad_id": 66612, "name": "STARLINK-36039", "group": "last-30-days", "lat": -39.76086821165484, "lon": 99.83207580755031, "alt_km": 390.87876906038673, "timestamp": "2025-12-08T15:42:48.537516+00:00", "meta": {"OBJECT_NAME": "STARLINK-36039", "OBJECT_ID": "2025-270AA", "EPOCH": "2025-12-08T06:00:02.999808", "MEAN_MOTION": 15.61396921, "ECCENTRICITY": 0.00013331, "INCLINATION": 42.999, "RA_OF_ASC_NODE": 218.9955, "ARG_OF_PERICENTER": 275.7213, "MEAN_ANOMALY": 217.768, "EPHEMERIS_TYPE": 0, "CLASSIFICATION_TYPE": "U", "NORAD_CAT_ID": 66612, "ELEMENT_SET_NO": 999, "REV_AT_EPOCH": 367, "BSTAR": -0.025929706, "MEAN_MOTION_DOT": -0.01996848, "MEAN_MOTION_DDOT": 0}, "tle": {"line1": "1 66612U 25270AA  25342.25003472 -.01996848  00000+0 -25930-1 0  9992", "line2": "2 66612  42.9990 218.9955 0001333 275.7213 217.7680 15.61396921  3672"}}, "geometry": {"type": "Point", "coordinates": [99.83207580755031, -39.76086821165484]}}]}